FENGYUN 1C DEB          
1 31613U 99025BZT 17345.46373580  .00000313  00000-0  32667-3 0  9999
2 31613  98.4326 169.9446 0366643 205.4068 152.8645 13.55363653520930
